O3B FM5                 
1 39188U 13031A   26116.66819691 -.00000027  00000+0  00000+0 0  9997
2 39188   0.1023 359.9231 0003140  24.6234 335.4669  5.00116490234469
O3B FM4                 
1 39189U 13031B   26116.78749132 -.00000027  00000+0  00000+0 0  9993
2 39189   0.0493 346.0000 0005149  48.9621 325.0702  5.00115192234473
O3B FM2                 
1 39190U 13031C   26116.65319398 -.00000027  00000+0  00000+0 0  9998
2 39190   0.0471 339.2001 0002788  54.2019 326.6141  5.00115974234532
O3B PFM                 
1 39191U 13031D   26113.46906767 -.00000026  00000+0  00000+0 0  9996
2 39191   0.0700 358.7224 0004841  42.5713 318.7416  5.00115912233936
O3B FM3                 
1 40079U 14038A   26116.73396010 -.00000027  00000+0  00000+0 0  9999
2 40079   0.0514 355.2549 0001411 106.0121 258.7473  5.00115633210466
O3B FM7                 
1 40080U 14038B   26116.08038862 -.00000027  00000+0  00000+0 0  9997
2 40080   0.0542 347.5637 0004216  28.9904 343.4580  5.00115631215271
O3B FM6                 
1 40081U 14038C   26116.30727307 -.00000027  00000+0  00000+0 0  9992
2 40081   0.0520 352.0554 0002636  41.7448 326.2150  5.00115694215234
O3B FM8                 
1 40082U 14038D   26116.76034074 -.00000027  00000+0  00000+0 0  9995
2 40082   0.0524 350.9925 0002701  47.1419 321.8832  5.00116025215371
O3B FM10                
1 40348U 14083A   26116.58758973 -.00000027  00000+0  00000+0 0  9991
2 40348   0.0387 337.8692 0002657  58.0180 324.1291  5.00115309207318
O3B FM11                
1 40349U 14083B   26116.60027462 -.00000027  00000+0  00000+0 0  9997
2 40349   0.0578 359.2869 0002917  22.5130 338.2110  5.00115560207321
O3B FM12                
1 40350U 14083C   26116.62733138 -.00000027  00000+0  00000+0 0  9995
2 40350   0.0570 358.9779 0002541  33.2070 327.8291  5.00115890207348
O3B FM9                 
1 40351U 14083D   26116.65416259 -.00000027  00000+0  00000+0 0  9991
2 40351   0.0590 359.1012 0002708  35.8424 325.0726  5.00115928207491
LEO 1 (LEO VANTAGE 1)   
1 43113U 18004C   26116.70881046  .00001996  00000+0  14420-3 0  9993
2 43113  99.2451  28.2854 0350184 237.3699 119.3260 14.67565783429934
O3B FM15                
1 43231U 18024A   26116.52105647 -.00000027  00000+0  00000+0 0  9992
2 43231   0.0510   4.2349 0002637  29.2807 326.4995  5.00115707148444
O3B FM16                
1 43232U 18024B   26116.37351760 -.00000027  00000+0  00000+0 0  9995
2 43232   0.0487   8.1920 0002684  23.6117 328.2109  5.00115916148359
O3B FM14                
1 43233U 18024C   26116.01451709 -.00000027  00000+0  00000+0 0  9991
2 43233   0.0471   8.2311 0002860  27.6841 324.1024  5.00115703148346
O3B FM13                
1 43234U 18024D   26116.08037929 -.00000027  00000+0  00000+0 0  9993
2 43234   0.0556 328.9915 0003580  21.8257   9.1746  5.00115553148456
